0 COSMOS 2407
1 28380U 04028A   13281.50232198  .00000042  00000-0  27975-4 0  9215
2 28380 082.9550 265.8203 0037725 250.5210 109.1863 13.75936841462677
0 COSMOS 2407
1 28380U 04028A   13282.52038652  .00000037  00000-0  22370-4 0  9226
2 28380 082.9551 265.0662 0037719 247.5423 112.1728 13.75936844462817
0 COSMOS 2407
1 28380U 04028A   13283.02941910  .00000024  00000-0  91437-5 0  9230
2 28380 082.9552 264.6887 0037668 246.1744 113.5450 13.75936748462883
0 COSMOS 2407
1 28380U 04028A   13284.41107899  .00000003  00000-0 -12478-4 0  9240
2 28380 082.9558 263.6662 0037727 242.1299 117.6028 13.75936575463072
0 COSMOS 2407
1 28380U 04028A   13285.50186360  .00000004  00000-0 -11491-4 0  9257
2 28380 082.9560 262.8576 0037708 239.0571 120.6871 13.75936499463229
0 COSMOS 2407
1 28380U 04028A   13286.51992881  .00000030  00000-0  15054-4 0  9260
2 28380 082.9565 262.1050 0037830 235.9134 123.8465 13.75936878463360
0 COSMOS 2407
1 28380U 04028A   13287.53799392  .00000027  00000-0  12246-4 0  9272
2 28380 082.9571 261.3511 0037814 233.0278 126.7418 13.75936865463502
0 COSMOS 2407
1 28380U 04028A   13288.04702672  .00000043  00000-0  29018-4 0  9288
2 28380 082.9577 260.9738 0037770 231.6803 128.0972 13.75937095463576
0 COSMOS 2407
1 28380U 04028A   13289.06509181  .00000071  00000-0  57345-4 0  9297
2 28380 082.9582 260.2208 0037869 228.7072 131.0857 13.75937499463711
0 COSMOS 2407
1 28380U 04028A   13290.08315582  .00000089  00000-0  75553-4 0  9303
2 28380 082.9582 259.4671 0037953 225.6894 134.1145 13.75937857463854
0 COSMOS 2407
1 28380U 04028A   13290.51946965  .00000099  00000-0  86322-4 0  9314
2 28380 082.9583 259.1428 0037825 224.5314 135.2782 13.75937966463912
0 COSMOS 2407
1 28380U 04028A   13291.90113030  .00000096  00000-0  83487-4 0  9313
2 28380 082.9588 258.1212 0037867 220.5966 139.2368 13.75938156464100
0 COSMOS 2407
1 28380U 04028A   13293.06463324  .00000087  00000-0  73797-4 0  9320
2 28380 082.9576 257.2596 0037972 217.1278 142.7236 13.75938250464262
0 COSMOS 2407
1 28380U 04028A   13294.22813708  .00000059  00000-0  45030-4 0  9333
2 28380 082.9579 256.3977 0037985 213.9075 145.9634 13.75938118464429
0 COSMOS 2407
1 28380U 04028A   13295.39164136  .00000060  00000-0  46515-4 0  9348
2 28380 082.9584 255.5365 0038141 210.4663 149.4293 13.75938223464581
